CRE (WAAS/PRN 138)      
1 28868U 05036A   24353.07596830 -.00000071  00000+0  00000+0 0  9998
2 28868   2.9091  83.3793 0001627 198.9353  84.9372  1.00272173 70689
IOR-W (EGNOS/PRN 126)   
1 28899U 05044A   24352.55630498 -.00000258  00000+0  00000+0 0  9999
2 28899   4.3988  43.0497 0003249 227.6268 159.7547  1.00271465 70043
GSAT-8 (GAGAN/PRN 127)  
1 37605U 11022A   24352.81368862  .00000089  00000+0  00000+0 0  9990
2 37605   0.7155  88.8554 0008940 179.2355 166.8389  1.00270076 47737
LUCH 5A (SDCM/PRN 140)  
1 37951U 11074B   24352.55580564 -.00000049  00000+0  00000+0 0  9994
2 37951   7.3570  82.0835 0004826 171.6853 199.8469  1.00270630 47574
SES-5 (EGNOS/PRN 136)   
1 38652U 12036A   24352.31299199  .00000039  00000+0  00000+0 0  9995
2 38652   0.0554 304.5345 0002352 320.0805 299.4666  1.00271369 38994
GSAT-10 (GAGAN/PRN 128) 
1 38779U 12051B   24352.18452257 -.00000160  00000+0  00000+0 0  9999
2 38779   0.0369 237.4611 0002046 237.8319 120.4466  1.00272899 44620
LUCH 5B (SDCM/PRN 125)  
1 38977U 12061A   24352.45081146 -.00000138  00000+0  00000+0 0  9990
2 38977   9.2927  55.0762 0006133 184.2619 353.1634  1.00271153 44120
ASTRA 5B (EGNOS/PRN 123)
1 39617U 14011B   24352.93530365  .00000142  00000+0  00000+0 0  9998
2 39617   0.0417   0.2493 0004800 273.1070 173.9092  1.00275414 39197
LUCH 5V (SDCM/PRN 141)  
1 39727U 14023A   24353.11602022 -.00000265  00000+0  00000+0 0  9991
2 39727   3.7642  74.6783 0004640 208.3915 300.6474  1.00270611557031
GSAT-15 (GAGAN/PRN 139) 
1 41028U 15065A   24352.88243841 -.00000253  00000+0  00000+0 0  9995
2 41028   0.0700 268.8564 0002959 329.8609 259.4443  1.00270282 33329
E 117 W B (WAAS/PRN 131)
1 41589U 16038B   24352.43082892 -.00000006  00000+0  00000+0 0  9992
2 41589   0.0090 162.4151 0000329 293.2124  29.0151  1.00270911 31198
SES-15 (WAAS/PRN 133)   
1 42709U 17026A   24350.60754959  .00000068  00000+0  00000+0 0  9999
2 42709   0.0219  17.6502 0000574 242.1116 274.5632  1.00267549  1947
QZS-2 (QZSS/PRN 194)    
1 42738U 17028A   24352.55234058 -.00000175  00000+0  00000+0 0  9992
2 42738  40.2798 251.1149 0757188 269.4988 266.1472  1.00283425  2141
QZS-3 (QZSS/PRN 199)    
1 42917U 17048A   24353.01924469 -.00000343  00000+0  00000+0 0  9994
2 42917   0.0833 134.5460 0001531 132.9086 313.6150  1.00268559 26891
QZS-4 (QZSS/PRN 195)    
1 42965U 17062A   24352.39501479 -.00000359  00000+0  00000+0 0  9992
2 42965  40.4261 350.4607 0752626 271.6682 103.0292  1.00250740 26330
BEIDOU-3 G1 (PRN 130)   
1 43683U 18085A   24352.98208681 -.00000274  00000+0  00000+0 0  9996
2 43683   2.6490 103.1742 0001378  69.6370  47.8920  1.00272949 22575
BEIDOU-3 G2 (PRN 144)   
1 45344U 20017A   24352.79012089 -.00000138  00000+0  00000+0 0  9993
2 45344   2.5732  35.9193 0004687 228.9625 186.4866  1.00270960 17787
BEIDOU-3 G3 (PRN 143)   
1 45807U 20040A   24352.95535292 -.00000350  00000+0  00000+0 0  9993
2 45807   1.1450  57.7502 0003413 299.2658 184.4985  1.00275218 16603
GALAXY 30 (WAAS/PRN 135)
1 46114U 20056C   24352.41438318  .00000042  00000+0  00000+0 0  9991
2 46114   0.0179   4.0406 0002294 259.0738 207.5873  1.00267806 15929
QZS-1R (QZSS/PRN 196)   
1 49336U 21096A   24352.59977014 -.00000281  00000+0  00000+0 0  9991
2 49336  36.3289  87.7575 0754266 271.3619  78.5249  1.00259849 11528
